OBJECT_NAME,OBJECT_ID,EPOCH,MEAN_MOTION,ECCENTRICITY,INCLINATION,RA_OF_ASC_NODE,ARG_OF_PERICENTER,MEAN_ANOMALY,EPHEMERIS_TYPE,CLASSIFICATION_TYPE,NORAD_CAT_ID,ELEMENT_SET_NO,REV_AT_EPOCH,BSTAR,MEAN_MOTION_DOT,MEAN_MOTION_DDOT
GEOSCAN 3 (RS92S3),2025-155T,2026-07-17T16:23:55.125888,15.36362104,.000852,97.4558,168.9409,80.8353,279.3854,0,U,64893,999,8553,.28723E-3,.10116E-3,0
INNOSAT 3 (RS92S0),2025-155U,2026-07-17T16:33:10.954368,15.45940720,.0008121,97.4503,170.9682,84.7522,275.4654,0,U,64894,999,8567,.48396E-3,.23535E-3,0
KNACKSAT-2,1998-067XZ,2026-07-17T05:47:37.449888,15.62548905,.0007952,51.6276,143.0009,335.1166,24.9444,0,U,67683,999,2497,.37883E-3,.34112E-3,0
