GEOSCAN 3 (RS92S3)      
1 64893U 25155T   26198.68327692  .00010116  00000+0  28723-3 0  9990
2 64893  97.4558 168.9409 0008520  80.8353 279.3854 15.36362104 85539
INNOSAT 3 (RS92S0)      
1 64894U 25155U   26198.68971012  .00023535  00000+0  48396-3 0  9999
2 64894  97.4503 170.9682 0008121  84.7522 275.4654 15.45940720 85670
KNACKSAT-2              
1 67683U 98067XZ  26198.24140567  .00034112  00000+0  37883-3 0  9997
2 67683  51.6276 143.0009 0007952 335.1166  24.9444 15.62548905 24978
